[{"OBJECT_NAME":"FLOCK 4G-9","OBJECT_ID":"2025-009P","EPOCH":"2026-04-25T20:51:24.424416","MEAN_MOTION":15.27132733,"ECCENTRICITY":0.0005922,"INCLINATION":97.3959,"RA_OF_ASC_NODE":197.2411,"ARG_OF_PERICENTER":138.7956,"MEAN_ANOMALY":221.3731,"EPHEMERIS_TYPE":0,"CLASSIFICATION_TYPE":"U","NORAD_CAT_ID":62622,"ELEMENT_SET_NO":999,"REV_AT_EPOCH":7087,"BSTAR":0.00040057,"MEAN_MOTION_DOT":0.00010594,"MEAN_MOTION_DDOT":0},{"OBJECT_NAME":"FLOCK 4G-7","OBJECT_ID":"2025-009R","EPOCH":"2026-04-25T18:18:53.885088","MEAN_MOTION":15.28202251,"ECCENTRICITY":0.0004169,"INCLINATION":97.3948,"RA_OF_ASC_NODE":197.4224,"ARG_OF_PERICENTER":132.1267,"MEAN_ANOMALY":228.0327,"EPHEMERIS_TYPE":0,"CLASSIFICATION_TYPE":"U","NORAD_CAT_ID":62624,"ELEMENT_SET_NO":999,"REV_AT_EPOCH":7089,"BSTAR":0.0003959,"MEAN_MOTION_DOT":0.00010814,"MEAN_MOTION_DDOT":0},{"OBJECT_NAME":"FLOCK 4G-12","OBJECT_ID":"2025-009S","EPOCH":"2026-04-25T18:03:14.825088","MEAN_MOTION":15.28063165,"ECCENTRICITY":0.0005709,"INCLINATION":97.4022,"RA_OF_ASC_NODE":197.8922,"ARG_OF_PERICENTER":129.8203,"MEAN_ANOMALY":230.3539,"EPHEMERIS_TYPE":0,"CLASSIFICATION_TYPE":"U","NORAD_CAT_ID":62625,"ELEMENT_SET_NO":999,"REV_AT_EPOCH":7089,"BSTAR":0.00041877,"MEAN_MOTION_DOT":0.00011398,"MEAN_MOTION_DDOT":0},{"OBJECT_NAME":"FLOCK 4G-11","OBJECT_ID":"2025-009W","EPOCH":"2026-04-25T19:26:59.801568","MEAN_MOTION":15.28260691,"ECCENTRICITY":0.0004189,"INCLINATION":97.3925,"RA_OF_ASC_NODE":197.5945,"ARG_OF_PERICENTER":133.0506,"MEAN_ANOMALY":227.1085,"EPHEMERIS_TYPE":0,"CLASSIFICATION_TYPE":"U","NORAD_CAT_ID":62629,"ELEMENT_SET_NO":999,"REV_AT_EPOCH":7091,"BSTAR":0.00044353,"MEAN_MOTION_DOT":0.00012148,"MEAN_MOTION_DDOT":0},{"OBJECT_NAME":"PELICAN-2","OBJECT_ID":"2025-009Y","EPOCH":"2026-04-25T19:47:41.819712","MEAN_MOTION":15.40471304,"ECCENTRICITY":0.0003558,"INCLINATION":97.3598,"RA_OF_ASC_NODE":206.6308,"ARG_OF_PERICENTER":98.4274,"MEAN_ANOMALY":261.7376,"EPHEMERIS_TYPE":0,"CLASSIFICATION_TYPE":"U","NORAD_CAT_ID":62631,"ELEMENT_SET_NO":999,"REV_AT_EPOCH":7149,"BSTAR":0.00085505,"MEAN_MOTION_DOT":0.00034681,"MEAN_MOTION_DDOT":0},{"OBJECT_NAME":"FLOCK 4G-26","OBJECT_ID":"2025-009AA","EPOCH":"2026-04-25T18:20:47.453568","MEAN_MOTION":15.28324149,"ECCENTRICITY":0.0004944,"INCLINATION":97.4017,"RA_OF_ASC_NODE":198.0375,"ARG_OF_PERICENTER":123.9168,"MEAN_ANOMALY":236.2542,"EPHEMERIS_TYPE":0,"CLASSIFICATION_TYPE":"U","NORAD_CAT_ID":62633,"ELEMENT_SET_NO":999,"REV_AT_EPOCH":7090,"BSTAR":0.00042608,"MEAN_MOTION_DOT":0.0001169,"MEAN_MOTION_DDOT":0},{"OBJECT_NAME":"FLOCK 4G-28","OBJECT_ID":"2025-009AB","EPOCH":"2026-04-25T18:05:32.383392","MEAN_MOTION":15.33969559,"ECCENTRICITY":0.0003369,"INCLINATION":97.4018,"RA_OF_ASC_NODE":200.1414,"ARG_OF_PERICENTER":120.3676,"MEAN_ANOMALY":239.79,"EPHEMERIS_TYPE":0,"CLASSIFICATION_TYPE":"U","NORAD_CAT_ID":62634,"ELEMENT_SET_NO":999,"REV_AT_EPOCH":7104,"BSTAR":0.00026295,"MEAN_MOTION_DOT":8.564e-5,"MEAN_MOTION_DDOT":0},{"OBJECT_NAME":"FLOCK 4G-20","OBJECT_ID":"2025-009AD","EPOCH":"2026-04-25T17:54:26.299008","MEAN_MOTION":15.43911633,"ECCENTRICITY":0.0004246,"INCLINATION":97.3889,"RA_OF_ASC_NODE":199.0002,"ARG_OF_PERICENTER":171.9487,"MEAN_ANOMALY":188.1829,"EPHEMERIS_TYPE":0,"CLASSIFICATION_TYPE":"U","NORAD_CAT_ID":62636,"ELEMENT_SET_NO":999,"REV_AT_EPOCH":7100,"BSTAR":0.0016522,"MEAN_MOTION_DOT":0.00075643,"MEAN_MOTION_DDOT":0},{"OBJECT_NAME":"FLOCK 4G-24","OBJECT_ID":"2025-009AE","EPOCH":"2026-04-25T17:36:16.979904","MEAN_MOTION":15.28870309,"ECCENTRICITY":0.0004599,"INCLINATION":97.4022,"RA_OF_ASC_NODE":198.2505,"ARG_OF_PERICENTER":114.4374,"MEAN_ANOMALY":245.7346,"EPHEMERIS_TYPE":0,"CLASSIFICATION_TYPE":"U","NORAD_CAT_ID":62637,"ELEMENT_SET_NO":999,"REV_AT_EPOCH":7091,"BSTAR":0.00038522,"MEAN_MOTION_DOT":0.00010738,"MEAN_MOTION_DDOT":0},{"OBJECT_NAME":"FLOCK 4G-3","OBJECT_ID":"2025-009AG","EPOCH":"2026-04-25T16:45:03.300768","MEAN_MOTION":15.2827509,"ECCENTRICITY":0.0004475,"INCLINATION":97.4027,"RA_OF_ASC_NODE":197.9888,"ARG_OF_PERICENTER":120.3851,"MEAN_ANOMALY":239.7831,"EPHEMERIS_TYPE":0,"CLASSIFICATION_TYPE":"U","NORAD_CAT_ID":62639,"ELEMENT_SET_NO":999,"REV_AT_EPOCH":7088,"BSTAR":0.00039493,"MEAN_MOTION_DOT":0.00010812,"MEAN_MOTION_DDOT":0},{"OBJECT_NAME":"FLOCK 4G-27","OBJECT_ID":"2025-009AJ","EPOCH":"2026-04-25T20:18:44.019648","MEAN_MOTION":15.28248996,"ECCENTRICITY":0.0003722,"INCLINATION":97.3938,"RA_OF_ASC_NODE":197.586,"ARG_OF_PERICENTER":123.0054,"MEAN_ANOMALY":237.1544,"EPHEMERIS_TYPE":0,"CLASSIFICATION_TYPE":"U","NORAD_CAT_ID":62641,"ELEMENT_SET_NO":999,"REV_AT_EPOCH":7090,"BSTAR":0.0004548,"MEAN_MOTION_DOT":0.00012454,"MEAN_MOTION_DDOT":0},{"OBJECT_NAME":"FLOCK 4G-29","OBJECT_ID":"2025-009AK","EPOCH":"2026-04-25T18:31:02.801280","MEAN_MOTION":15.28367647,"ECCENTRICITY":0.0004469,"INCLINATION":97.4021,"RA_OF_ASC_NODE":198.019,"ARG_OF_PERICENTER":116.9208,"MEAN_ANOMALY":243.2489,"EPHEMERIS_TYPE":0,"CLASSIFICATION_TYPE":"U","NORAD_CAT_ID":62642,"ELEMENT_SET_NO":999,"REV_AT_EPOCH":7089,"BSTAR":0.00039405,"MEAN_MOTION_DOT":0.00010818,"MEAN_MOTION_DDOT":0},{"OBJECT_NAME":"FLOCK 4G-22","OBJECT_ID":"2025-009AN","EPOCH":"2026-04-25T18:47:16.046304","MEAN_MOTION":15.28236484,"ECCENTRICITY":0.0003993,"INCLINATION":97.4011,"RA_OF_ASC_NODE":198.0953,"ARG_OF_PERICENTER":117.0544,"MEAN_ANOMALY":243.1103,"EPHEMERIS_TYPE":0,"CLASSIFICATION_TYPE":"U","NORAD_CAT_ID":62645,"ELEMENT_SET_NO":999,"REV_AT_EPOCH":7091,"BSTAR":0.00038575,"MEAN_MOTION_DOT":0.00010545,"MEAN_MOTION_DDOT":0},{"OBJECT_NAME":"FLOCK 4G-25","OBJECT_ID":"2025-009AP","EPOCH":"2026-04-25T18:24:19.729728","MEAN_MOTION":15.2842274,"ECCENTRICITY":0.000346,"INCLINATION":97.4014,"RA_OF_ASC_NODE":198.127,"ARG_OF_PERICENTER":123.3533,"MEAN_ANOMALY":236.8038,"EPHEMERIS_TYPE":0,"CLASSIFICATION_TYPE":"U","NORAD_CAT_ID":62646,"ELEMENT_SET_NO":999,"REV_AT_EPOCH":7091,"BSTAR":0.00039023,"MEAN_MOTION_DOT":0.00010729,"MEAN_MOTION_DDOT":0},{"OBJECT_NAME":"FLOCK 4G-23","OBJECT_ID":"2025-009AQ","EPOCH":"2026-04-25T19:22:17.531904","MEAN_MOTION":15.28694594,"ECCENTRICITY":0.0002807,"INCLINATION":97.3943,"RA_OF_ASC_NODE":197.6764,"ARG_OF_PERICENTER":136.5197,"MEAN_ANOMALY":223.6265,"EPHEMERIS_TYPE":0,"CLASSIFICATION_TYPE":"U","NORAD_CAT_ID":62647,"ELEMENT_SET_NO":999,"REV_AT_EPOCH":7091,"BSTAR":0.0013752,"MEAN_MOTION_DOT":0.00038454,"MEAN_MOTION_DDOT":0},{"OBJECT_NAME":"FLOCK 4G-34","OBJECT_ID":"2025-009AT","EPOCH":"2026-04-25T18:15:37.383840","MEAN_MOTION":15.28202208,"ECCENTRICITY":0.0003415,"INCLINATION":97.3966,"RA_OF_ASC_NODE":197.6866,"ARG_OF_PERICENTER":121.9003,"MEAN_ANOMALY":238.2569,"EPHEMERIS_TYPE":0,"CLASSIFICATION_TYPE":"U","NORAD_CAT_ID":62650,"ELEMENT_SET_NO":999,"REV_AT_EPOCH":7090,"BSTAR":0.00040083,"MEAN_MOTION_DOT":0.00010949,"MEAN_MOTION_DDOT":0},{"OBJECT_NAME":"FLOCK 4G-21","OBJECT_ID":"2025-009AU","EPOCH":"2026-04-25T18:33:14.507712","MEAN_MOTION":15.29527975,"ECCENTRICITY":0.0003245,"INCLINATION":97.3994,"RA_OF_ASC_NODE":198.4553,"ARG_OF_PERICENTER":124.5603,"MEAN_ANOMALY":235.5944,"EPHEMERIS_TYPE":0,"CLASSIFICATION_TYPE":"U","NORAD_CAT_ID":62651,"ELEMENT_SET_NO":999,"REV_AT_EPOCH":7094,"BSTAR":0.00041423,"MEAN_MOTION_DOT":0.00011788,"MEAN_MOTION_DDOT":0}]
